STARLINK-36208          
1 67108U 25299G   26002.75002314 -.00107263  00000+0 -18457-2 0  9998
2 67108  42.9989 189.0620 0001554 262.7642  75.1013 15.50608198  4188
STARLINK-35764          
1 67109U 25299H   26002.75002314 -.00124493  00000+0 -21468-2 0  9999
2 67109  42.9988 189.0583 0001358 273.3938  66.3792 15.50622916  4072
STARLINK-35781          
1 67110U 25299J   26002.75002314 -.00132871  00000+0 -22936-2 0  9991
2 67110  42.9989 189.0472 0001565 262.0215  81.5820 15.50628039  4135
STARLINK-35875          
1 67111U 25299K   26002.75002314 -.00128131  00000+0 -22107-2 0  9996
2 67111  42.9988 189.0531 0001303 260.9868  80.7064 15.50622558  4076
STARLINK-35906          
1 67112U 25299L   26002.75002314 -.00126011  00000+0 -21733-2 0  9996
2 67112  42.9990 189.0436 0001532 261.0997  84.4229 15.50623796  4072
STARLINK-35789          
1 67113U 25299M   26002.75002314 -.00127514  00000+0 -21997-2 0  9998
2 67113  42.9990 189.0377 0001658 266.6133  80.8270 15.50623756  4071
STARLINK-36180          
1 67114U 25299N   26002.75002314 -.00107163  00000+0 -18434-2 0  9999
2 67114  42.9990 189.0342 0001609 250.4807  98.8767 15.50616471  4187
STARLINK-35892          
1 67115U 25299P   26002.75002314  .00058049  00000+0  98912-3 0  9996
2 67115  42.9988 189.0291 0000967 267.7900  83.4414 15.50546730  4076
STARLINK-35738          
1 67116U 25299Q   26002.75002314 -.00035143  00000+0 -59559-3 0  9993
2 67116  42.9987 189.0251 0001188 263.5116  89.6334 15.50593690  4077
STARLINK-35674          
1 67117U 25299R   26002.75002314 -.00286733  00000+0 -50417-2 0  9990
2 67117  42.9987 189.0189 0001536 248.5396 106.5396 15.50695165  3973
STARLINK-35701          
1 67118U 25299S   26002.75002314  .00089763  00000+0  15221-2 0  9997
2 67118  42.9988 189.0156 0000881 279.2426  77.7404 15.50510578  4138
STARLINK-36179          
1 67119U 25299T   26002.75002314 -.00002324  00000+0 -33807-4 0  9990
2 67119  42.9986 189.0043 0001535 271.9376  88.9283 15.50573307  4185
